NORAD_CAT_ID,OBJECT_NAME,OBJECT_TYPE,EPOCH,MEAN_MOTION,ECCENTRICITY,INCLINATION,RA_OF_ASC_NODE,ARG_OF_PERICENTER,MEAN_ANOMALY,BSTAR,MEAN_MOTION_DOT,MEAN_MOTION_DDOT,TLE_LINE0,TLE_LINE1,TLE_LINE2,SEMIMAJOR_AXIS,PERIOD,APOGEE,PERIGEE,DECAYED
52640.0,STARLINK-3977,PAYLOAD,2022-10-27 15:53:50,15.08843479,0.0002125,53.2171,16.4311,34.632,325.481,0.00017104,2.435e-05,0.0,0 STARLINK-3977,1 52640U 22052AU  22300.66239091  .00002435  00000-0  17104-3 0  9991,2 52640  53.2171  16.4311 0002125  34.6320 325.4810 15.08843479 25966,6917.87,95.437,541.205,538.265,0.0
52640.0,STARLINK-3977,PAYLOAD,2022-10-27 17:29:13,15.08845225,0.0002142,53.2171,16.1337,33.4753,326.6375,0.00017754,2.539e-05,0.0,0 STARLINK-3977,1 52640U 22052AU  22300.72862988  .00002539  00000-0  17754-3 0  9991,2 52640  53.2171  16.1337 0002142  33.4753 326.6375 15.08845225 25596,6917.864000000001,95.437,541.211,538.248,0.0
52640.0,STARLINK-3977,PAYLOAD,2022-10-27 22:15:22,15.08852918,0.0002211999999999,53.217,15.2418,32.558,327.5549,0.00025633,3.795e-05,0.0,0 STARLINK-3977,1 52640U 22052AU  22300.92734572  .00003795  00000-0  25633-3 0  9990,2 52640  53.2170  15.2418 0002212  32.5580 327.5549 15.08852918 26008,6917.840999999999,95.437,541.236,538.1759999999998,0.0
52640.0,STARLINK-3977,PAYLOAD,2022-10-28 12:33:50,15.08860796,0.0002376,53.2169,12.5665,36.4408,323.6746,0.00039063,5.938e-05,0.0,0 STARLINK-3977,1 52640U 22052AU  22301.52349950  .00005938  00000-0  39063-3 0  9992,2 52640  53.2169  12.5665 0002376  36.4408 323.6746 15.08860796 25719,6917.816999999999,95.436,541.325,538.038,0.0
52640.0,STARLINK-3977,PAYLOAD,2022-10-28 17:19:59,15.08857774,0.0002338,53.2167,11.6737,37.7806,322.335,0.00028865,4.311e-05,0.0,0 STARLINK-3977,1 52640U 22052AU  22301.72221876  .00004311  00000-0  28865-3 0  9992,2 52640  53.2167  11.6737 0002338  37.7806 322.3350 15.08857774 25743,6917.826,95.436,541.308,538.0740000000002,0.0
52640.0,STARLINK-3977,PAYLOAD,2022-10-28 22:06:09,15.08852059,0.0002481999999999,53.2166,10.7817,36.925,323.1913,0.00014516,2.023e-05,0.0,0 STARLINK-3977,1 52640U 22052AU  22301.92093942  .00002023  00000-0  14516-3 0  9991,2 52640  53.2166  10.7817 0002482  36.9250 323.1913 15.08852059 26156,6917.844,95.437,541.4259999999998,537.992,0.0
52640.0,STARLINK-3977,PAYLOAD,2022-10-29 09:13:51,15.08847529,0.000236,53.2168,8.6996,36.1674,323.9478,0.00011053,1.472e-05,0.0,0 STARLINK-3977,1 52640U 22052AU  22302.38461954  .00001472  00000-0  11053-3 0  9994,2 52640  53.2168   8.6996 0002360  36.1674 323.9478 15.08847529 25844,6917.857,95.437,541.355,538.09,0.0
52640.0,STARLINK-3977,PAYLOAD,2022-10-29 15:35:23,15.08857183,0.0002299,53.2164,7.5099,36.2405,323.8742,0.00023368,3.434e-05,0.0,0 STARLINK-3977,1 52640U 22052AU  22302.64957295  .00003434  00000-0  23368-3 0  9993,2 52640  53.2164   7.5099 0002299  36.2405 323.8742 15.08857183 25880,6917.828,95.436,541.283,538.102,0.0
52640.0,STARLINK-3977,PAYLOAD,2022-10-30 10:40:01,15.0883264,0.0002417,53.2166,3.9421,31.7677,328.3461,-0.00025065,-4.275e-05,0.0,0 STARLINK-3977,1 52640U 22052AU  22303.44446078 -.00004275  00000-0 -25065-3 0  9996,2 52640  53.2166   3.9421 0002417  31.7677 328.3461 15.08832640 26008,6917.903,95.438,541.44,538.096,0.0
52640.0,STARLINK-3977,PAYLOAD,2022-10-30 13:50:47,15.08833163,0.0002399,53.2169,3.3468,34.2748,325.8399,-0.00013363,-2.414e-05,0.0,0 STARLINK-3977,1 52640U 22052AU  22303.57694097 -.00002414  00000-0 -13363-3 0  9997,2 52640  53.2169   3.3468 0002399  34.2748 325.8399 15.08833163 26027,6917.901,95.438,541.4259999999998,538.107,0.0
52640.0,STARLINK-3977,PAYLOAD,2022-10-31 10:30:48,15.08839601,0.0002362,53.2166,359.4807,31.7015,328.4119,0.00019472,2.812e-05,0.0,0 STARLINK-3977,1 52640U 22052AU  22304.43806195  .00002812  00000-0  19472-3 0  9994,2 52640  53.2166 359.4807 0002362  31.7015 328.4119 15.08839601 26151,6917.882,95.438,541.381,538.113,0.0
52640.0,STARLINK-3977,PAYLOAD,2022-10-31 15:16:58,15.08828966,0.0002416,53.2165,358.5892,30.7855,329.3279,-4.0214e-05,-9.28e-06,0.0,0 STARLINK-3977,1 52640U 22052AU  22304.63678691 -.00000928  00000-0 -40214-4 0  9991,2 52640  53.2165 358.5892 0002416  30.7855 329.3279 15.08828966 26187,6917.9140000000025,95.438,541.45,538.1080000000002,0.0
52640.0,STARLINK-3977,PAYLOAD,2022-11-01 11:56:59,15.088366399999998,0.0002316999999999,53.2167,354.7235,27.8732,332.2383,0.00024753,3.653e-05,0.0,0 STARLINK-3977,1 52640U 22052AU  22305.49790995  .00003653  00000-0  24753-3 0  9993,2 52640  53.2167 354.7235 0002317  27.8732 332.2383 15.08836640 26311,6917.891,95.438,541.359,538.153,0.0
52640.0,STARLINK-3977,PAYLOAD,2022-11-01 15:07:45,15.08839284,0.0002294,53.2169,354.1286,28.7334,331.3784,0.00045599,6.976e-05,0.0,0 STARLINK-3977,1 52640U 22052AU  22305.63039026  .00006976  00000-0  45599-3 0  9992,2 52640  53.2169 354.1286 0002294  28.7334 331.3784 15.08839284 26339,6917.8830000000025,95.438,541.335,538.161,0.0
52640.0,STARLINK-3977,PAYLOAD,2022-11-02 10:12:23,15.08832616,0.0002123,53.2172,350.5618,29.8986,330.2127,-0.00010289,-1.925e-05,0.0,0 STARLINK-3977,1 52640U 22052AU  22306.42526993 -.00001925  00000-0 -10289-3 0  9993,2 52640  53.2172 350.5618 0002123  29.8986 330.2127 15.08832616 26834,6917.903,95.438,541.237,538.299,0.0
52640.0,STARLINK-3977,PAYLOAD,2022-11-02 11:47:46,15.08833305,0.0002376,53.217,350.2631,28.3598,331.7523,1.5975e-05,-3.4e-07,0.0,0 STARLINK-3977,1 52640U 22052AU  22306.49151242 -.00000034  00000-0  15975-4 0  9998,2 52640  53.2170 350.2631 0002376  28.3598 331.7523 15.08833305 26468,6917.901,95.438,541.41,538.122,0.0
52640.0,STARLINK-3977,PAYLOAD,2022-11-02 19:44:42,15.08840088,0.000251,53.2167,348.7763,30.7234,329.3904,0.00015835,2.233e-05,0.0,0 STARLINK-3977,1 52640U 22052AU  22306.82270987  .00002233  00000-0  15835-3 0  9999,2 52640  53.2167 348.7763 0002510  30.7234 329.3904 15.08840088 26514,6917.88,95.438,541.482,538.009,0.0
52640.0,STARLINK-3977,PAYLOAD,2022-11-03 02:06:14,15.08842437,0.0002422,53.2168,347.587,31.0383,329.0752,0.00018233,2.615e-05,0.0,0 STARLINK-3977,1 52640U 22052AU  22307.08766895  .00002615  00000-0  18233-3 0  9995,2 52640  53.2168 347.5870 0002422  31.0383 329.0752 15.08842437 26936,6917.873000000001,95.437,541.413,538.062,0.0
52640.0,STARLINK-3977,PAYLOAD,2022-11-03 13:13:56,15.08853854,0.0002444,53.2167,345.5053,30.8301,329.2834,0.00055143,8.502e-05,0.0,0 STARLINK-3977,1 52640U 22052AU  22307.55134844  .00008502  00000-0  55143-3 0  9992,2 52640  53.2167 345.5053 0002444  30.8301 329.2834 15.08853854 26621,6917.8380000000025,95.437,541.394,538.012,0.0
52640.0,STARLINK-3977,PAYLOAD,2022-11-04 08:18:33,15.08856128,0.0002296,53.2159,341.9367,18.0922,342.0151,0.00022349,3.272e-05,0.0,0 STARLINK-3977,1 52640U 22052AU  22308.34621804  .00003272  00000-0  22349-3 0  9998,2 52640  53.2159 341.9367 0002296  18.0922 342.0151 15.08856128 27120,6917.831,95.437,541.284,538.1080000000002,0.0
52640.0,STARLINK-3977,PAYLOAD,2022-11-04 11:29:19,15.08854991,0.0002199,53.2159,341.3416,25.1305,334.9794,0.00018257,2.62e-05,0.0,0 STARLINK-3977,1 52640U 22052AU  22308.47869759  .00002620  00000-0  18257-3 0  9994,2 52640  53.2159 341.3416 0002199  25.1305 334.9794 15.08854991 26763,6917.835,95.437,541.221,538.178,0.0
52640.0,STARLINK-3977,PAYLOAD,2022-11-04 19:26:15,15.0883914,0.0002398,53.2164,339.8544,29.0035,331.1090000000001,0.00016043,2.266e-05,0.0,0 STARLINK-3977,1 52640U 22052AU  22308.80990466  .00002266  00000-0  16043-3 0  9998,2 52640  53.2164 339.8544 0002398  29.0035 331.1090 15.08839140 26810,6917.8830000000025,95.438,541.4069999999998,538.089,0.0
52640.0,STARLINK-3977,PAYLOAD,2022-11-05 01:47:48,15.08842766,0.0002386,53.2161,338.6652,27.1049,333.0067,4.0032e-06,-2.25e-06,0.0,0 STARLINK-3977,1 52640U 22052AU  22309.07486113 -.00000225  00000-0  40032-5 0  9998,2 52640  53.2161 338.6652 0002386  27.1049 333.0067 15.08842766 27235,6917.871999999999,95.437,541.388,538.086,0.0
52640.0,STARLINK-3977,PAYLOAD,2022-11-05 09:44:44,15.08835177,0.0002446,53.2171,337.1782,26.2274,333.8842,-0.00011726,-2.154e-05,0.0,0 STARLINK-3977,1 52640U 22052AU  22309.40606555 -.00002154  00000-0 -11726-3 0  9999,2 52640  53.2171 337.1782 0002446  26.2274 333.8842 15.08835177 27283,6917.895,95.438,541.452,538.068,0.0
52640.0,STARLINK-3977,PAYLOAD,2022-11-05 19:17:04,15.08822787,0.0002409,53.217,335.3947,30.5947,329.5185,-0.00018521,-3.234e-05,0.0,0 STARLINK-3977,1 52640U 22052AU  22309.80352617 -.00003234  00000-0 -18521-3 0  9990,2 52640  53.2170 335.3947 0002409  30.5947 329.5185 15.08822787 26968,6917.933000000001,95.439,541.465,538.131,0.0
52640.0,STARLINK-3977,PAYLOAD,2022-11-06 01:38:36,15.08832126,0.0002434,53.2174,334.2048,31.8373,328.2766,-0.00014861,-2.652e-05,0.0,0 STARLINK-3977,1 52640U 22052AU  22310.06848075 -.00002652  00000-0 -14861-3 0  9994,2 52640  53.2174 334.2048 0002434  31.8373 328.2766 15.08832126 27383,6917.904,95.438,541.453,538.086,0.0
52640.0,STARLINK-3977,PAYLOAD,2022-11-06 11:10:55,15.08835504,0.0002392,53.217,332.4205,31.7978,328.3158,6.0176e-06,-1.93e-06,0.0,0 STARLINK-3977,1 52640U 22052AU  22310.46591699 -.00000193  00000-0  60176-5 0  9994,2 52640  53.2170 332.4205 0002392  31.7978 328.3158 15.08835504 27443,6917.894,95.438,541.414,538.104,0.0
52640.0,STARLINK-3977,PAYLOAD,2022-11-07 12:37:05,15.08843377,0.0002588,53.2159,327.6636,31.2215,328.8931,0.00043814,6.692e-05,0.0,0 STARLINK-3977,1 52640U 22052AU  22311.52576029  .00006692  00000-0  43814-3 0  9999,2 52640  53.2159 327.6636 0002588  31.2215 328.8931 15.08843377 27609,6917.87,95.437,541.525,537.945,0.0
52640.0,STARLINK-3977,PAYLOAD,2022-11-08 09:17:05,15.088541,0.00026,53.2159,323.7974,32.4517,327.6634,0.00030662,4.597e-05,0.0,0 STARLINK-3977,1 52640U 22052AU  22312.38687131  .00004597  00000-0  30662-3 0  9990,2 52640  53.2159 323.7974 0002600  32.4517 327.6634 15.08854100 27359,6917.837,95.437,541.501,537.904,0.0
